STARLINK-34372          
1 64301U 25123L   26015.98913519  .00006520  00000+0  55368-3 0  9998
2 64301  70.0032 327.3671 0002387 270.4700  89.6185 14.98331824 33722
STARLINK-34379          
1 64302U 25123M   26015.83495282  .00029880  00000+0  68221-3 0  9991
2 64302  70.0047 307.5825 0002314 231.3475 128.7501 15.42751221 34203
STARLINK-34356          
1 64303U 25123N   26015.82220342 -.00004020  00000+0 -32933-3 0  9996
2 64303  70.0018 327.5823 0002727 269.4871  90.5976 14.98324153 33708
STARLINK-34360          
1 64304U 25123P   26015.86828515  .00003943  00000+0  33802-3 0  9994
2 64304  70.0023 327.7417 0002846 270.6396  89.4437 14.98336781 33703
STARLINK-34383          
1 64305U 25123Q   26015.28414284  .00005160  00000+0  43981-3 0  9997
2 64305  70.0023 329.3139 0002842 268.2592  91.8241 14.98339728 33614
STARLINK-34355          
1 64306U 25123R   26015.27982454 -.00019499  00000+0 -16279-2 0  9997
2 64306  70.0026 329.3018 0002857 264.9711  95.1122 14.98402714 33617
STARLINK-34380          
1 64307U 25123S   26015.27562661 -.00030369  00000+0 -25461-2 0  9994
2 64307  70.0043 329.2890 0002094 271.3891  88.7028 14.98368000 33610
STARLINK-34374          
1 64308U 25123T   26015.86394618  .00062667  00000+0  51777-2 0  9998
2 64308  70.0018 327.7268 0003728 264.0486  96.0249 14.98591184 33707
STARLINK-34370          
1 64309U 25123U   26015.85577697  .00003378  00000+0  29084-3 0  9999
2 64309  70.0029 327.6985 0002737 267.0483  93.0363 14.98323803 33709
STARLINK-34357          
1 64310U 25123V   26015.47607133  .00033690  00000+0  28221-2 0  9999
2 64310  70.0028 328.7824 0002182 278.7994  81.2918 14.98271493 33649
STARLINK-34368          
1 64311U 25123W   26015.86812491  .00006255  00000+0  53136-3 0  9999
2 64311  70.0027 327.7390 0003226 263.7781  96.3011 14.98341966 33705
STARLINK-34384          
1 64312U 25123X   26015.85993160 -.00196327  00000+0 -17140-1 0  9997
2 64312  70.0081 327.7193 0005194 347.0408  13.0616 14.97799505 33707
STARLINK-34358          
1 64313U 25123Y   26015.98503714  .00037860  00000+0  31638-2 0  9997
2 64313  70.0104 327.3711 0003400 195.2391 164.8666 14.98327407 33729
STARLINK-34354          
1 64314U 25123Z   26015.97660327  .00005832  00000+0  49614-3 0  9999
2 64314  70.0086 327.3227 0001747 270.3366  89.7593 14.98332086 33723
STARLINK-34387          
1 64315U 25123AA  26015.83472290  .00005275  00000+0  44939-3 0  9991
2 64315  70.0033 327.6278 0002316 269.9204  90.1689 14.98344860 33706
STARLINK-33590          
1 64316U 25123AB  26015.97679900  .00057039  00000+0  47571-2 0  9993
2 64316  70.0037 327.3103 0003034 324.3757  35.7199 14.98266461 33725
