[{"OBJECT_NAME":"STARLINK-34372","OBJECT_ID":"2025-123L","EPOCH":"2026-01-15T23:44:21.280416","MEAN_MOTION":14.98331824,"ECCENTRICITY":0.00023872,"INCLINATION":70.0032,"RA_OF_ASC_NODE":327.3671,"ARG_OF_PERICENTER":270.47,"MEAN_ANOMALY":89.6185,"EPHEMERIS_TYPE":0,"CLASSIFICATION_TYPE":"U","NORAD_CAT_ID":64301,"ELEMENT_SET_NO":999,"REV_AT_EPOCH":3372,"BSTAR":0.00055367756,"MEAN_MOTION_DOT":6.52e-5,"MEAN_MOTION_DDOT":0},{"OBJECT_NAME":"STARLINK-34379","OBJECT_ID":"2025-123M","EPOCH":"2026-01-15T20:02:19.923648","MEAN_MOTION":15.42751221,"ECCENTRICITY":0.00023141,"INCLINATION":70.0047,"RA_OF_ASC_NODE":307.5825,"ARG_OF_PERICENTER":231.3475,"MEAN_ANOMALY":128.7501,"EPHEMERIS_TYPE":0,"CLASSIFICATION_TYPE":"U","NORAD_CAT_ID":64302,"ELEMENT_SET_NO":999,"REV_AT_EPOCH":3420,"BSTAR":0.00068220955,"MEAN_MOTION_DOT":0.0002988,"MEAN_MOTION_DDOT":0},{"OBJECT_NAME":"STARLINK-34356","OBJECT_ID":"2025-123N","EPOCH":"2026-01-15T19:43:58.375488","MEAN_MOTION":14.98324153,"ECCENTRICITY":0.0002727,"INCLINATION":70.0018,"RA_OF_ASC_NODE":327.5823,"ARG_OF_PERICENTER":269.4871,"MEAN_ANOMALY":90.5976,"EPHEMERIS_TYPE":0,"CLASSIFICATION_TYPE":"U","NORAD_CAT_ID":64303,"ELEMENT_SET_NO":999,"REV_AT_EPOCH":3370,"BSTAR":-0.00032932817,"MEAN_MOTION_DOT":-4.02e-5,"MEAN_MOTION_DDOT":0},{"OBJECT_NAME":"STARLINK-34360","OBJECT_ID":"2025-123P","EPOCH":"2026-01-15T20:50:19.836960","MEAN_MOTION":14.98336781,"ECCENTRICITY":0.0002846,"INCLINATION":70.0023,"RA_OF_ASC_NODE":327.7417,"ARG_OF_PERICENTER":270.6396,"MEAN_ANOMALY":89.4437,"EPHEMERIS_TYPE":0,"CLASSIFICATION_TYPE":"U","NORAD_CAT_ID":64304,"ELEMENT_SET_NO":999,"REV_AT_EPOCH":3370,"BSTAR":0.00033802004,"MEAN_MOTION_DOT":3.943e-5,"MEAN_MOTION_DDOT":0},{"OBJECT_NAME":"STARLINK-34383","OBJECT_ID":"2025-123Q","EPOCH":"2026-01-15T06:49:09.941376","MEAN_MOTION":14.98339728,"ECCENTRICITY":0.00028425,"INCLINATION":70.0023,"RA_OF_ASC_NODE":329.3139,"ARG_OF_PERICENTER":268.2592,"MEAN_ANOMALY":91.8241,"EPHEMERIS_TYPE":0,"CLASSIFICATION_TYPE":"U","NORAD_CAT_ID":64305,"ELEMENT_SET_NO":999,"REV_AT_EPOCH":3361,"BSTAR":0.00043980687,"MEAN_MOTION_DOT":5.16e-5,"MEAN_MOTION_DDOT":0},{"OBJECT_NAME":"STARLINK-34355","OBJECT_ID":"2025-123R","EPOCH":"2026-01-15T06:42:56.840256","MEAN_MOTION":14.98402714,"ECCENTRICITY":0.00028571,"INCLINATION":70.0026,"RA_OF_ASC_NODE":329.3018,"ARG_OF_PERICENTER":264.9711,"MEAN_ANOMALY":95.1122,"EPHEMERIS_TYPE":0,"CLASSIFICATION_TYPE":"U","NORAD_CAT_ID":64306,"ELEMENT_SET_NO":999,"REV_AT_EPOCH":3361,"BSTAR":-0.0016278964,"MEAN_MOTION_DOT":-0.00019499,"MEAN_MOTION_DDOT":0},{"OBJECT_NAME":"STARLINK-34380","OBJECT_ID":"2025-123S","EPOCH":"2026-01-15T06:36:54.139104","MEAN_MOTION":14.98368,"ECCENTRICITY":0.00020944,"INCLINATION":70.0043,"RA_OF_ASC_NODE":329.289,"ARG_OF_PERICENTER":271.3891,"MEAN_ANOMALY":88.7028,"EPHEMERIS_TYPE":0,"CLASSIFICATION_TYPE":"U","NORAD_CAT_ID":64307,"ELEMENT_SET_NO":999,"REV_AT_EPOCH":3361,"BSTAR":-0.0025460639,"MEAN_MOTION_DOT":-0.00030369,"MEAN_MOTION_DDOT":0},{"OBJECT_NAME":"STARLINK-34374","OBJECT_ID":"2025-123T","EPOCH":"2026-01-15T20:44:04.949952","MEAN_MOTION":14.98591184,"ECCENTRICITY":0.0003728,"INCLINATION":70.0018,"RA_OF_ASC_NODE":327.7268,"ARG_OF_PERICENTER":264.0486,"MEAN_ANOMALY":96.0249,"EPHEMERIS_TYPE":0,"CLASSIFICATION_TYPE":"U","NORAD_CAT_ID":64308,"ELEMENT_SET_NO":999,"REV_AT_EPOCH":3370,"BSTAR":0.0051777255,"MEAN_MOTION_DOT":0.00062667,"MEAN_MOTION_DDOT":0},{"OBJECT_NAME":"STARLINK-34370","OBJECT_ID":"2025-123U","EPOCH":"2026-01-15T20:32:19.130208","MEAN_MOTION":14.98323803,"ECCENTRICITY":0.0002737,"INCLINATION":70.0029,"RA_OF_ASC_NODE":327.6985,"ARG_OF_PERICENTER":267.0483,"MEAN_ANOMALY":93.0363,"EPHEMERIS_TYPE":0,"CLASSIFICATION_TYPE":"U","NORAD_CAT_ID":64309,"ELEMENT_SET_NO":999,"REV_AT_EPOCH":3370,"BSTAR":0.00029084099,"MEAN_MOTION_DOT":3.378e-5,"MEAN_MOTION_DDOT":0},{"OBJECT_NAME":"STARLINK-34357","OBJECT_ID":"2025-123V","EPOCH":"2026-01-15T11:25:32.562912","MEAN_MOTION":14.98271493,"ECCENTRICITY":0.00021822,"INCLINATION":70.0028,"RA_OF_ASC_NODE":328.7824,"ARG_OF_PERICENTER":278.7994,"MEAN_ANOMALY":81.2918,"EPHEMERIS_TYPE":0,"CLASSIFICATION_TYPE":"U","NORAD_CAT_ID":64310,"ELEMENT_SET_NO":999,"REV_AT_EPOCH":3364,"BSTAR":0.0028221274,"MEAN_MOTION_DOT":0.0003369,"MEAN_MOTION_DDOT":0},{"OBJECT_NAME":"STARLINK-34368","OBJECT_ID":"2025-123W","EPOCH":"2026-01-15T20:50:05.992224","MEAN_MOTION":14.98341966,"ECCENTRICITY":0.00032267,"INCLINATION":70.0027,"RA_OF_ASC_NODE":327.739,"ARG_OF_PERICENTER":263.7781,"MEAN_ANOMALY":96.3011,"EPHEMERIS_TYPE":0,"CLASSIFICATION_TYPE":"U","NORAD_CAT_ID":64311,"ELEMENT_SET_NO":999,"REV_AT_EPOCH":3370,"BSTAR":0.00053136299,"MEAN_MOTION_DOT":6.255e-5,"MEAN_MOTION_DDOT":0},{"OBJECT_NAME":"STARLINK-34384","OBJECT_ID":"2025-123X","EPOCH":"2026-01-15T20:38:18.090240","MEAN_MOTION":14.97799505,"ECCENTRICITY":0.00051949,"INCLINATION":70.0081,"RA_OF_ASC_NODE":327.7193,"ARG_OF_PERICENTER":347.0408,"MEAN_ANOMALY":13.0616,"EPHEMERIS_TYPE":0,"CLASSIFICATION_TYPE":"U","NORAD_CAT_ID":64312,"ELEMENT_SET_NO":999,"REV_AT_EPOCH":3370,"BSTAR":-0.017140172,"MEAN_MOTION_DOT":-0.00196327,"MEAN_MOTION_DDOT":0},{"OBJECT_NAME":"STARLINK-34358","OBJECT_ID":"2025-123Y","EPOCH":"2026-01-15T23:38:27.208896","MEAN_MOTION":14.98327407,"ECCENTRICITY":0.00034,"INCLINATION":70.0104,"RA_OF_ASC_NODE":327.3711,"ARG_OF_PERICENTER":195.2391,"MEAN_ANOMALY":164.8666,"EPHEMERIS_TYPE":0,"CLASSIFICATION_TYPE":"U","NORAD_CAT_ID":64313,"ELEMENT_SET_NO":999,"REV_AT_EPOCH":3372,"BSTAR":0.0031638181,"MEAN_MOTION_DOT":0.0003786,"MEAN_MOTION_DDOT":0},{"OBJECT_NAME":"STARLINK-34354","OBJECT_ID":"2025-123Z","EPOCH":"2026-01-15T23:26:18.522528","MEAN_MOTION":14.98332086,"ECCENTRICITY":0.00017474,"INCLINATION":70.0086,"RA_OF_ASC_NODE":327.3227,"ARG_OF_PERICENTER":270.3366,"MEAN_ANOMALY":89.7593,"EPHEMERIS_TYPE":0,"CLASSIFICATION_TYPE":"U","NORAD_CAT_ID":64314,"ELEMENT_SET_NO":999,"REV_AT_EPOCH":3372,"BSTAR":0.00049614464,"MEAN_MOTION_DOT":5.832e-5,"MEAN_MOTION_DDOT":0},{"OBJECT_NAME":"STARLINK-34387","OBJECT_ID":"2025-123AA","EPOCH":"2026-01-15T20:02:00.058560","MEAN_MOTION":14.9834486,"ECCENTRICITY":0.00023161,"INCLINATION":70.0033,"RA_OF_ASC_NODE":327.6278,"ARG_OF_PERICENTER":269.9204,"MEAN_ANOMALY":90.1689,"EPHEMERIS_TYPE":0,"CLASSIFICATION_TYPE":"U","NORAD_CAT_ID":64315,"ELEMENT_SET_NO":999,"REV_AT_EPOCH":3370,"BSTAR":0.00044938597,"MEAN_MOTION_DOT":5.275e-5,"MEAN_MOTION_DDOT":0},{"OBJECT_NAME":"STARLINK-33590","OBJECT_ID":"2025-123AB","EPOCH":"2026-01-15T23:26:35.433600","MEAN_MOTION":14.98266461,"ECCENTRICITY":0.0003034,"INCLINATION":70.0037,"RA_OF_ASC_NODE":327.3103,"ARG_OF_PERICENTER":324.3757,"MEAN_ANOMALY":35.7199,"EPHEMERIS_TYPE":0,"CLASSIFICATION_TYPE":"U","NORAD_CAT_ID":64316,"ELEMENT_SET_NO":999,"REV_AT_EPOCH":3372,"BSTAR":0.0047571436,"MEAN_MOTION_DOT":0.00057039,"MEAN_MOTION_DDOT":0}]
